CUTE-1 (CO-55)          
1 27844U 03031E   20014.86913158  .00000024  00000-0  30350-4 0  9991
2 27844  98.6835  24.9270 0010550 138.6694 221.5284 14.22215811858123
CUBESAT XI-IV (CO-57)   
1 27848U 03031J   20014.49917159  .00000012  00000-0  25165-4 0  9994
2 27848  98.6907  25.1018 0010249 150.8286 209.3466 14.21805759857926
CUBESAT XI-V            
1 28895U 05043F   20014.65042936  .00000095  00000-0  27041-4 0  9998
2 28895  97.9855 155.5728 0017734  52.3674 307.9135 14.63729300757966
CUTE-1.7+APD II (CO-65) 
1 32785U 08021C   20014.84633262  .00000198  00000-0  26946-4 0  9996
2 32785  97.5613   9.7797 0011610 288.4765  71.5190 14.88403800634873
AAUSAT-II               
1 32788U 08021F   20014.77329641  .00000812  00000-0  79375-4 0  9991
2 32788  97.4921  26.1596 0010962 208.3108 151.7518 14.94916584636207
DELFI-C3 (DO-64)        
1 32789U 08021G   20015.08092117  .00001359  00000-0  93692-4 0  9997
2 32789  97.4394  63.1342 0013508 122.4455 237.8082 15.07388409638659
SEEDS II (CO-66)        
1 32791U 08021J   20014.71017022  .00000156  00000-0  21199-4 0  9998
2 32791  97.5336  15.7739 0011821 256.9410 103.0490 14.90952303635321
SWISSCUBE               
1 35932U 09051B   20014.90787052  .00000089  00000-0  31192-4 0  9999
2 35932  98.6005 192.2782 0006749 236.3307 123.7247 14.56348637547338
BEESAT-1                
1 35933U 09051C   20014.76113003  .00000079  00000-0  28883-4 0  9995
2 35933  98.6016 193.9622 0004803 250.9275 109.1402 14.56429904547469
ITUPSAT1                
1 35935U 09051E   20014.73426155  .00000048  00000-0  22190-4 0  9990
2 35935  98.6124 194.1538 0007114 250.1086 109.9344 14.55581567547163
TISAT 1                 
1 36799U 10035E   20014.71289955  .00000277  00000-0  33921-4 0  9994
2 36799  98.1767 179.1926 0013441 115.3303 244.9308 14.91247885515862
M-CUBED & EXP-1 PRIME   
1 37855U 11061F   20015.12170980  .00000603  00000-0  37880-4 0  9992
2 37855 101.7268  23.9386 0172103 172.8397 187.5334 15.05935503448448
AEROCUBE 4.5A           
1 38767U 12048K   20014.66692074  .00000148  00000-0  26583-4 0  9994
2 38767  64.6662   0.2785 0160422 187.1926 172.6885 14.92135364 18705
AEROCUBE 4.5B           
1 38768U 12048L   20014.85257933  .00000223  00000-0  30493-4 0  9996
2 38768  64.6673 330.9584 0149194 184.0095 175.9837 14.95747591 18756
STRAND-1                
1 39090U 13009E   20014.99704300  .00000018  00000-0  21556-4 0  9995
2 39090  98.4675 222.2177 0009697  30.1405 330.0337 14.35114193360559
SOMP                    
1 39134U 13015E   20014.51980902  .00001311  00000-0  67800-4 0  9992
2 39134  64.8633  60.3964 0038019 269.3116  90.3655 15.20658302372494
BEESAT-3                
1 39135U 13015F   20014.49092414  .00001014  00000-0  58650-4 0  9995
2 39135  64.8667  81.7732 0045006 270.7859  88.8111 15.17855871371692
BEESAT-2                
1 39136U 13015G   20014.80582208  .00000763  00000-0  47766-4 0  9992
2 39136  64.8716  85.2211 0031007 279.5491  80.2132 15.17276807372049
NEE-01 PEGASO           
1 39151U 13018B   20015.06575689  .00000129  00000-0  23983-4 0  9997
2 39151  97.9726 115.0010 0015953 237.8956 122.0708 14.80117380362848
ESTCUBE 1               
1 39161U 13021C   20014.19084509  .00000087  00000-0  21579-4 0  9993
2 39161  97.9766 100.2825 0010173  22.7945 337.3740 14.72270125359190
POPACS 1                
1 39268U 13055D   20014.91449771  .00002522  00000-0  69753-4 0  9996
2 39268  81.0028  99.4173 0620185 320.9917  34.8029 14.38306853325776
POPACS 2                
1 39269U 13055E   20014.77074863  .00001363  00000-0  37544-4 0  9992
2 39269  81.0155 134.0020 0681170  50.5781 315.3691 14.24864359323956
POPACS 3                
1 39270U 13055F   20014.80399653  .00001484  00000-0  44371-4 0  9995
2 39270  81.0168 153.5162 0712356 106.7960 261.2564 14.16501091303238
ZACUBE-1 (TSHEPISOSAT)  
1 39417U 13066B   20015.07549790  .00000195  00000-0  30651-4 0  9993
2 39417  97.5613  21.7310 0060254  64.8116 295.9329 14.81206661332185
WNISAT-1                
1 39423U 13066H   20014.93561616  .00000120  00000-0  33391-4 0  9997
2 39423  97.7987 307.0127 0175975  17.8092 342.9171 14.53088302325989
TRITON-1                
1 39427U 13066M   20015.15798872  .00000124  00000-0  27882-4 0  9994
2 39427  97.7046 344.8585 0112887 211.1618 148.2862 14.67929904329213
GOMX-1                  
1 39430U 13066Q   20015.05632244  .00000189  00000-0  43693-4 0  9996
2 39430  97.7739 323.0595 0150213 311.5023  47.3369 14.59339065327286
CUBEBUG-2 (LO-74)       
1 39440U 13066AA  20015.12511178  .00000178  00000-0  31466-4 0  9990
2 39440  97.6166   6.2958 0081398 120.8615 240.0634 14.75943129331011
NEE-02 KRYSAOR          
1 39441U 13066AB  20014.89809794  .00000103  00000-0  21543-4 0  9991
2 39441  97.6227   3.6985 0082815 129.5377 231.3190 14.74968861330789
FUNCUBE-1 (AO-73)       
1 39444U 13066AE  20015.09373696  .00000241  00000-0  35707-4 0  9994
2 39444  97.5574  23.8789 0059267  57.8642 302.8304 14.82044720331099
UWE-3                   
1 39446U 13066AG  20014.76886790  .00000179  00000-0  30198-4 0  9992
2 39446  97.5886  13.1419 0071451  94.4459 266.4921 14.78478088330307
AEROCUBE 5A             
1 39465U 13072D   20014.90659216  .00003757  00000-0  31884-3 0  9994
2 39465 120.4982 324.0435 0281357  87.0446 276.2763 14.74840877 18553
AEROCUBE 5B             
1 39466U 13072E   20014.88900839  .00006567  00000-0  45757-3 0  9998
2 39466 120.4983 352.5679 0256317  93.7040 269.3361 14.84034164 18612
BRITE-CA1 (TORONTO)     
1 40020U 14033L   20014.81532388  .00000044  00000-0  15977-4 0  9993
2 40020  97.7315 211.8476 0086777 205.3943 154.2986 14.66615421298099
DUCHIFAT-1              
1 40021U 14033M   20014.77603987  .00000271  00000-0  33365-4 0  9996
2 40021  97.9350 305.1590 0014302  78.3450 281.9372 14.90786542302847
NANOSATC-BR1            
1 40024U 14033Q   20014.51212958  .00000230  00000-0  29745-4 0  9997
2 40024  97.9222 301.7498 0013647  82.9165 277.3604 14.89974713302688
QB50P1                  
1 40025U 14033R   20014.83686504  .00000194  00000-0  26600-4 0  9991
2 40025  97.9121 299.2114 0013863  88.1225 272.1579 14.89053661302086
QB50P2                  
1 40032U 14033Y   20014.83722722  .00000214  00000-0  29029-4 0  9993
2 40032  97.9026 296.9976 0013280  85.0541 275.2191 14.88584127301985
PERSEUS-M2              
1 40037U 14033AD  20014.84807299  .00000057  00000-0  12705-4 0  9990
2 40037  97.8913 292.3394 0015803  98.3554 261.9454 14.86508037301698
PERSEUS-M1              
1 40039U 14033AF  20014.88549153  .00000090  00000-0  16465-4 0  9992
2 40039  97.8886 291.3016 0015665  96.2002 264.0998 14.86128204301613
POLYITAN-1              
1 40042U 14033AJ  20014.80604498  .00000344  00000-0  42777-4 0  9999
2 40042  97.9202 299.6099 0015985  79.1266 281.1749 14.88782367301981
TIGRISAT                
1 40043U 14033AK  20014.68304717  .00000105  00000-0  22710-4 0  9997
2 40043  97.7283 238.2182 0060823 137.8016 222.7898 14.74331011299249
AEROCUBE 6A             
1 40045U 14033AM  20014.52977460  .00000226  00000-0  39593-4 0  9994
2 40045  97.7529 242.8052 0058507 130.3653 230.2686 14.75499002299269
AEROCUBE 6B             
1 40046U 14033AN  20014.87684007  .00000236  00000-0  40990-4 0  9999
2 40046  97.7451 242.5752 0058010 128.4769 232.1665 14.75478399299313
UKUBE-1                 
1 40074U 14037F   20015.05152671  .00000225  00000-0  34075-4 0  9997
2 40074  98.4495 194.2179 0003183 255.2392 104.8469 14.84173862298850
BRITE-PL2 (HEWELIUSZ)   
1 40119U 14049B   20014.89577686  .00000127  00000-0  21506-4 0  9994
2 40119  97.8996 108.6452 0016112 252.7016 107.2435 14.84461688292763
FIREBIRD 4              
1 40378U 15003C   20015.12000650  .00001494  00000-0  61294-4 0  9997
2 40378  99.1146  43.7319 0126474 108.9701 252.5283 15.19505835273877
GRIFEX                  
1 40379U 15003D   20015.12084536  .00000978  00000-0  45114-4 0  9992
2 40379  99.1197  36.5282 0134781 130.8989 230.4006 15.15997453273465
EXOCUBE (CP10)          
1 40380U 15003E   20014.78612976  .00000884  00000-0  43130-4 0  9992
2 40380  99.1252  32.2153 0139545 144.9533 216.0975 15.13987977273141
AEROCUBE 8A             
1 40659U 15025J   20014.31405528  .00008865  00000-0  10765-3 0  9991
2 40659  55.0176 288.9232 0120234 132.5354 228.5909 15.53289959 19415
AEROCUBE 8B             
1 40660U 15025K   20014.77446639  .00008934  00000-0  10766-3 0  9999
2 40660  55.0146 285.1312 0119405 135.3264 225.7467 15.53572424 19499
TIANWANG 1C (TW-1C)     
1 40926U 15051B   20015.07224721  .00013103  00000-0  16047-3 0  9995
2 40926  97.1085  66.2535 0005561 319.1156  66.6442 15.60475761242911
TIANWANG 1A (TW-1A)     
1 40928U 15051D   20015.03092741  .00002526  00000-0  61460-4 0  9995
2 40928  97.1250  46.5581 0011837  37.7219 352.7451 15.41811217241574
EXACTVIEW 9             
1 40936U 15052G   20007.53113757  .00000711  00000-0  10424-4 0  9990
2 40936   6.0048  54.8497 0010064 134.5290 225.5660 14.76534928231252
AEROCUBE 5C             
1 40965U 15058B   20014.65544720  .00000028  00000-0  23111-4 0  9995
2 40965  64.7775 252.7098 0172917 131.4071 230.2043 14.74462832 18485
AEROCUBE 7              
1 40966U 15058C   20014.59880632  .00000084  00000-0  29572-4 0  9993
2 40966  64.7776 251.5758 0171803 131.1700 230.4371 14.74750337 18471
ATHENOXAT 1             
1 41168U 15077C   20014.63305656  .00001831  00000-0  60813-4 0  9996
2 41168  14.9879 117.0601 0011393 133.2254 226.9019 15.14038773225842
GALASSIA                
1 41170U 15077E   20014.44931725  .00001828  00000-0  59930-4 0  9994
2 41170  14.9887 110.7873 0012649 156.5470 203.5429 15.14354847225881
VELOX-II                
1 41171U 15077F   20014.70696852  .00001337  00000-0  38292-4 0  9996
2 41171  14.9902 148.2821 0008795  65.1428 294.9806 15.11478035225576
